start=new Date('2022-06-20T00:00:00.000Z').valueOf();
sats=[{"BSTAR":"0.00006204700000","REF_FRAME":"TEME","GP_ID":"206447179","CENTER_NAME":"EARTH","TLE_LINE2":"2 47837  53.0532 211.7339 0001574  55.0083 305.1054 15.06387040 72071","EPHEMERIS_TYPE":"0","RCS_SIZE":"LARGE","MEAN_ANOMALY":"305.1054","MEAN_MOTION_DOT":"0.00000642","DECAY_DATE":null,"PERIOD":"95.593","INCLINATION":"53.0532","OBJECT_TYPE":"PAYLOAD","EPOCH":"2022-06-19T20:10:26.702112","REV_AT_EPOCH":"7207","MEAN_MOTION":"15.06387040","SEMIMAJOR_AXIS":"6925.388","OBJECT_ID":"2021-018BC","SITE":"AFETR","PERIAPSIS":"546.163","NORAD_CAT_ID":"47837","APOAPSIS":"548.343","TIME_SYSTEM":"UTC","OBJECT_NAME":"STARLINK-2427","COUNTRY_CODE":"US","MEAN_MOTION_DDOT":"0.0000000000000","CLASSIFICATION_TYPE":"U","LAUNCH_DATE":"2021-03-11","ECCENTRICITY":"0.00015740","FILE":"3497669","ARG_OF_PERICENTER":"55.0083","TLE_LINE1":"1 47837U 21018BC  22170.84058683  .00000642  00000-0  62047-4 0  9990","MEAN_ELEMENT_THEORY":"SGP4","RA_OF_ASC_NODE":"211.7339","ELEMENT_SET_NO":"999"},{"MEAN_ANOMALY":"307.5064","MEAN_MOTION_DOT":"-0.00000419","CENTER_NAME":"EARTH","TLE_LINE2":"2 47838  53.0551 232.5718 0001906  52.6098 307.5064 15.06392989 71752","RCS_SIZE":"LARGE","EPHEMERIS_TYPE":"0","BSTAR":"-0.00000923470000","GP_ID":"206447426","REF_FRAME":"TEME","INCLINATION":"53.0551","PERIOD":"95.593","DECAY_DATE":null,"REV_AT_EPOCH":"7175","OBJECT_TYPE":"PAYLOAD","EPOCH":"2022-06-19T15:42:24.163776","APOAPSIS":"548.555","NORAD_CAT_ID":"47838","PERIAPSIS":"545.915","SITE":"AFETR","MEAN_MOTION":"15.06392989","OBJECT_ID":"2021-018BD","SEMIMAJOR_AXIS":"6925.370","COUNTRY_CODE":"US","OBJECT_NAME":"STARLINK-2429","TIME_SYSTEM":"UTC","LAUNCH_DATE":"2021-03-11","ECCENTRICITY":"0.00019060","CLASSIFICATION_TYPE":"U","MEAN_MOTION_DDOT":"0.0000000000000","MEAN_ELEMENT_THEORY":"SGP4","FILE":"3497669","TLE_LINE1":"1 47838U 21018BD  22170.65444634 -.00000419  00000-0 -92347-5 0  9996","ARG_OF_PERICENTER":"52.6098","ELEMENT_SET_NO":"999","RA_OF_ASC_NODE":"232.5718"},{"INCLINATION":"53.0534","PERIOD":"95.593","DECAY_DATE":null,"MEAN_ANOMALY":"297.3364","MEAN_MOTION_DOT":"0.00000424","CENTER_NAME":"EARTH","TLE_LINE2":"2 47839  53.0534 201.8277 0001680  62.7796 297.3364 15.06393194 72219","RCS_SIZE":"LARGE","EPHEMERIS_TYPE":"0","BSTAR":"0.00004735900000","GP_ID":"206446180","REF_FRAME":"TEME","NORAD_CAT_ID":"47839","APOAPSIS":"548.398","PERIAPSIS":"546.071","SITE":"AFETR","MEAN_MOTION":"15.06393194","SEMIMAJOR_AXIS":"6925.369","OBJECT_ID":"2021-018BE","REV_AT_EPOCH":"7221","OBJECT_TYPE":"PAYLOAD","EPOCH":"2022-06-19T19:34:36.832512","LAUNCH_DATE":"2021-03-11","ECCENTRICITY":"0.00016800","CLASSIFICATION_TYPE":"U","MEAN_MOTION_DDOT":"0.0000000000000","COUNTRY_CODE":"US","OBJECT_NAME":"STARLINK-2431","TIME_SYSTEM":"UTC","ELEMENT_SET_NO":"999","RA_OF_ASC_NODE":"201.8277","MEAN_ELEMENT_THEORY":"SGP4","FILE":"3497669","TLE_LINE1":"1 47839U 21018BE  22170.81570408  .00000424  00000-0  47359-4 0  9990","ARG_OF_PERICENTER":"62.7796"},{"TIME_SYSTEM":"UTC","OBJECT_NAME":"STARLINK-2432","COUNTRY_CODE":"US","MEAN_MOTION_DDOT":"0.0000000000000","CLASSIFICATION_TYPE":"U","ECCENTRICITY":"0.00016270","LAUNCH_DATE":"2021-03-11","FILE":"3497669","TLE_LINE1":"1 47840U 21018BF  22170.82584197  .00000414  00000-0  46693-4 0  9992","ARG_OF_PERICENTER":"57.7440","MEAN_ELEMENT_THEORY":"SGP4","RA_OF_ASC_NODE":"211.8064","ELEMENT_SET_NO":"999","BSTAR":"0.00004669300000","GP_ID":"206446428","REF_FRAME":"TEME","TLE_LINE2":"2 47840  53.0546 211.8064 0001627  57.7440 302.3707 15.06384893 72067","CENTER_NAME":"EARTH","EPHEMERIS_TYPE":"0","RCS_SIZE":"LARGE","MEAN_ANOMALY":"302.3707","MEAN_MOTION_DOT":"0.00000414","DECAY_DATE":null,"PERIOD":"95.593","INCLINATION":"53.0546","EPOCH":"2022-06-19T19:49:12.746208","OBJECT_TYPE":"PAYLOAD","REV_AT_EPOCH":"7206","MEAN_MOTION":"15.06384893","OBJECT_ID":"2021-018BF","SEMIMAJOR_AXIS":"6925.395","SITE":"AFETR","PERIAPSIS":"546.133","APOAPSIS":"548.387","NORAD_CAT_ID":"47840"},{"MEAN_ELEMENT_THEORY":"SGP4","FILE":"3497669","TLE_LINE1":"1 47841U 21018BG  22170.82215018 -.00000843  00000-0 -37738-4 0  9994","ARG_OF_PERICENTER":"75.2828","ELEMENT_SET_NO":"999","RA_OF_ASC_NODE":"211.8195","COUNTRY_CODE":"US","TIME_SYSTEM":"UTC","OBJECT_NAME":"STARLINK-2433","ECCENTRICITY":"0.00013590","LAUNCH_DATE":"2021-03-11","MEAN_MOTION_DDOT":"0.0000000000000","CLASSIFICATION_TYPE":"U","REV_AT_EPOCH":"7206","EPOCH":"2022-06-19T19:43:53.775552","OBJECT_TYPE":"PAYLOAD","PERIAPSIS":"546.297","APOAPSIS":"548.180","NORAD_CAT_ID":"47841","MEAN_MOTION":"15.06391882","OBJECT_ID":"2021-018BG","SEMIMAJOR_AXIS":"6925.373","SITE":"AFETR","CENTER_NAME":"EARTH","TLE_LINE2":"2 47841  53.0549 211.8195 0001359  75.2828 284.8312 15.06391882 72065","RCS_SIZE":"LARGE","EPHEMERIS_TYPE":"0","MEAN_ANOMALY":"284.8312","MEAN_MOTION_DOT":"-0.00000843","BSTAR":"-0.00003773800000","GP_ID":"206447680","REF_FRAME":"TEME","INCLINATION":"53.0549","DECAY_DATE":null,"PERIOD":"95.593"},{"COUNTRY_CODE":"US","TIME_SYSTEM":"UTC","OBJECT_NAME":"STARLINK-2434","LAUNCH_DATE":"2021-03-11","ECCENTRICITY":"0.00016570","MEAN_MOTION_DDOT":"0.0000000000000","CLASSIFICATION_TYPE":"U","MEAN_ELEMENT_THEORY":"SGP4","TLE_LINE1":"1 47842U 21018BH  22170.60928569 -.00000847  00000-0 -37999-4 0  9996","ARG_OF_PERICENTER":"68.1367","FILE":"3497669","ELEMENT_SET_NO":"999","RA_OF_ASC_NODE":"242.7713","RCS_SIZE":"LARGE","EPHEMERIS_TYPE":"0","CENTER_NAME":"EARTH","TLE_LINE2":"2 47842  53.0550 242.7713 0001657  68.1367 291.9798 15.06391204 71667","MEAN_MOTION_DOT":"-0.00000847","MEAN_ANOMALY":"291.9798","GP_ID":"206447927","REF_FRAME":"TEME","BSTAR":"-0.00003799900000","INCLINATION":"53.0550","DECAY_DATE":null,"PERIOD":"95.593","REV_AT_EPOCH":"7166","EPOCH":"2022-06-19T14:37:22.283616","OBJECT_TYPE":"PAYLOAD","PERIAPSIS":"546.093","APOAPSIS":"548.388","NORAD_CAT_ID":"47842","OBJECT_ID":"2021-018BH","SEMIMAJOR_AXIS":"6925.376","MEAN_MOTION":"15.06391204","SITE":"AFETR"},{"REV_AT_EPOCH":"7169","OBJECT_TYPE":"PAYLOAD","EPOCH":"2022-06-19T13:58:14.280672","PERIAPSIS":"546.079","NORAD_CAT_ID":"47843","APOAPSIS":"548.455","MEAN_MOTION":"15.06382525","SEMIMAJOR_AXIS":"6925.402","OBJECT_ID":"2021-018BJ","SITE":"AFETR","CENTER_NAME":"EARTH","TLE_LINE2":"2 47843  53.0540 237.9009 0001715  55.5058 304.6092 15.06382525 71691","RCS_SIZE":"LARGE","EPHEMERIS_TYPE":"0","MEAN_MOTION_DOT":"0.00001951","MEAN_ANOMALY":"304.6092","BSTAR":"0.00014991000000","GP_ID":"206446680","REF_FRAME":"TEME","INCLINATION":"53.0540","DECAY_DATE":null,"PERIOD":"95.593","MEAN_ELEMENT_THEORY":"SGP4","FILE":"3497669","ARG_OF_PERICENTER":"55.5058","TLE_LINE1":"1 47843U 21018BJ  22170.58210973  .00001951  00000-0  14991-3 0  9998","ELEMENT_SET_NO":"999","RA_OF_ASC_NODE":"237.9009","COUNTRY_CODE":"US","TIME_SYSTEM":"UTC","OBJECT_NAME":"STARLINK-2435","LAUNCH_DATE":"2021-03-11","ECCENTRICITY":"0.00017150","MEAN_MOTION_DDOT":"0.0000000000000","CLASSIFICATION_TYPE":"U"},{"COUNTRY_CODE":"US","OBJECT_NAME":"STARLINK-2446","TIME_SYSTEM":"UTC","LAUNCH_DATE":"2021-03-11","ECCENTRICITY":"0.00014800","CLASSIFICATION_TYPE":"U","MEAN_MOTION_DDOT":"0.0000000000000","MEAN_ELEMENT_THEORY":"SGP4","FILE":"3497669","ARG_OF_PERICENTER":"61.9656","TLE_LINE1":"1 47844U 21018BK  22170.64706805  .00004747  00000-0  33735-3 0  9993","ELEMENT_SET_NO":"999","RA_OF_ASC_NODE":"232.6098","MEAN_ANOMALY":"298.1483","MEAN_MOTION_DOT":"0.00004747","TLE_LINE2":"2 47844  53.0540 232.6098 0001480  61.9656 298.1483 15.06399121 71754","CENTER_NAME":"EARTH","RCS_SIZE":"LARGE","EPHEMERIS_TYPE":"0","BSTAR":"0.00033735000000","REF_FRAME":"TEME","GP_ID":"206446929","INCLINATION":"53.0540","PERIOD":"95.592","DECAY_DATE":null,"REV_AT_EPOCH":"7175","EPOCH":"2022-06-19T15:31:46.679520","OBJECT_TYPE":"PAYLOAD","NORAD_CAT_ID":"47844","APOAPSIS":"548.241","PERIAPSIS":"546.191","SITE":"AFETR","MEAN_MOTION":"15.06399121","SEMIMAJOR_AXIS":"6925.351","OBJECT_ID":"2021-018BK"},{"REV_AT_EPOCH":"7179","EPOCH":"2022-06-19T20:44:56.699232","OBJECT_TYPE":"PAYLOAD","APOAPSIS":"548.348","NORAD_CAT_ID":"47845","PERIAPSIS":"546.102","SITE":"AFETR","MEAN_MOTION":"15.06396296","SEMIMAJOR_AXIS":"6925.360","OBJECT_ID":"2021-018BL","MEAN_ANOMALY":"310.1606","MEAN_MOTION_DOT":"0.00003389","TLE_LINE2":"2 47845  53.0517 231.6321 0001621  49.9525 310.1606 15.06396296 71791","CENTER_NAME":"EARTH","RCS_SIZE":"LARGE","EPHEMERIS_TYPE":"0","BSTAR":"0.00024634000000","REF_FRAME":"TEME","GP_ID":"206447180","INCLINATION":"53.0517","PERIOD":"95.592","DECAY_DATE":null,"MEAN_ELEMENT_THEORY":"SGP4","FILE":"3497669","TLE_LINE1":"1 47845U 21018BL  22170.86454513  .00003389  00000-0  24634-3 0  9993","ARG_OF_PERICENTER":"49.9525","ELEMENT_SET_NO":"999","RA_OF_ASC_NODE":"231.6321","COUNTRY_CODE":"US","OBJECT_NAME":"STARLINK-2453","TIME_SYSTEM":"UTC","LAUNCH_DATE":"2021-03-11","ECCENTRICITY":"0.00016210","CLASSIFICATION_TYPE":"U","MEAN_MOTION_DDOT":"0.0000000000000"},{"REV_AT_EPOCH":"7184","EPOCH":"2022-06-19T20:38:17.211552","OBJECT_TYPE":"PAYLOAD","NORAD_CAT_ID":"47846","APOAPSIS":"548.435","PERIAPSIS":"546.076","SITE":"AFETR","MEAN_MOTION":"15.06386297","OBJECT_ID":"2021-018BM","SEMIMAJOR_AXIS":"6925.391","MEAN_ANOMALY":"295.0336","MEAN_MOTION_DOT":"0.00001719","CENTER_NAME":"EARTH","TLE_LINE2":"2 47846  53.0550 231.6366 0001703  65.0829 295.0336 15.06386297 71842","EPHEMERIS_TYPE":"0","RCS_SIZE":"LARGE","BSTAR":"0.00013432000000","GP_ID":"206447427","REF_FRAME":"TEME","INCLINATION":"53.0550","PERIOD":"95.593","DECAY_DATE":null,"MEAN_ELEMENT_THEORY":"SGP4","FILE":"3497669","TLE_LINE1":"1 47846U 21018BM  22170.85992143  .00001719  00000-0  13432-3 0  9998","ARG_OF_PERICENTER":"65.0829","ELEMENT_SET_NO":"999","RA_OF_ASC_NODE":"231.6366","COUNTRY_CODE":"US","OBJECT_NAME":"STARLINK-2456","TIME_SYSTEM":"UTC","LAUNCH_DATE":"2021-03-11","ECCENTRICITY":"0.00017030","CLASSIFICATION_TYPE":"U","MEAN_MOTION_DDOT":"0.0000000000000"}];
